CCSDS_OMM_VERS = 2.0
CREATION_DATE  = 
ORIGINATOR     = 

OBJECT_NAME    = STARLINK-36125
OBJECT_ID      = 2025-294G
CENTER_NAME    = EARTH
REF_FRAME      = TEME
TIME_SYSTEM    = UTC
MEAN_ELEMENT_THEORY = SGP/SGP4

EPOCH          = 2025-12-20T14:00:03.000384
MEAN_MOTION    = 15.87736796
ECCENTRICITY   = .00016778
INCLINATION    = 42.9998
RA_OF_ASC_NODE = 134.2133
ARG_OF_PERICENTER = 266.4697
MEAN_ANOMALY   = 76.5985

EPHEMERIS_TYPE = 0
CLASSIFICATION_TYPE = U
NORAD_CAT_ID   = 67036
ELEMENT_SET_NO = 999
REV_AT_EPOCH   = 156
BSTAR          = -.56869624E-2
MEAN_MOTION_DOT = -.1381635E-1
MEAN_MOTION_DDOT = 0

CCSDS_OMM_VERS = 2.0
CREATION_DATE  = 
ORIGINATOR     = 

OBJECT_NAME    = STARLINK-35732
OBJECT_ID      = 2025-294H
CENTER_NAME    = EARTH
REF_FRAME      = TEME
TIME_SYSTEM    = UTC
MEAN_ELEMENT_THEORY = SGP/SGP4

EPOCH          = 2025-12-20T14:00:03.000384
MEAN_MOTION    = 15.87796859
ECCENTRICITY   = .00016669
INCLINATION    = 42.9998
RA_OF_ASC_NODE = 134.2015
ARG_OF_PERICENTER = 268.2026
MEAN_ANOMALY   = 79.5479

EPHEMERIS_TYPE = 0
CLASSIFICATION_TYPE = U
NORAD_CAT_ID   = 67037
ELEMENT_SET_NO = 999
REV_AT_EPOCH   = 148
BSTAR          = -.57539042E-2
MEAN_MOTION_DOT = -.1399479E-1
MEAN_MOTION_DDOT = 0

CCSDS_OMM_VERS = 2.0
CREATION_DATE  = 
ORIGINATOR     = 

OBJECT_NAME    = STARLINK-35775
OBJECT_ID      = 2025-294J
CENTER_NAME    = EARTH
REF_FRAME      = TEME
TIME_SYSTEM    = UTC
MEAN_ELEMENT_THEORY = SGP/SGP4

EPOCH          = 2025-12-20T14:00:03.000384
MEAN_MOTION    = 15.87835421
ECCENTRICITY   = .00016322
INCLINATION    = 42.9999
RA_OF_ASC_NODE = 134.1961
ARG_OF_PERICENTER = 274.1873
MEAN_ANOMALY   = 75.6103

EPHEMERIS_TYPE = 0
CLASSIFICATION_TYPE = U
NORAD_CAT_ID   = 67038
ELEMENT_SET_NO = 999
REV_AT_EPOCH   = 148
BSTAR          = -.58075103E-2
MEAN_MOTION_DOT = -.1413172E-1
MEAN_MOTION_DDOT = 0

CCSDS_OMM_VERS = 2.0
CREATION_DATE  = 
ORIGINATOR     = 

OBJECT_NAME    = STARLINK-35705
OBJECT_ID      = 2025-294K
CENTER_NAME    = EARTH
REF_FRAME      = TEME
TIME_SYSTEM    = UTC
MEAN_ELEMENT_THEORY = SGP/SGP4

EPOCH          = 2025-12-20T14:00:03.000384
MEAN_MOTION    = 15.87901410
ECCENTRICITY   = .00016533
INCLINATION    = 42.9999
RA_OF_ASC_NODE = 134.1856
ARG_OF_PERICENTER = 269.6230
MEAN_ANOMALY   = 84.4220

EPHEMERIS_TYPE = 0
CLASSIFICATION_TYPE = U
NORAD_CAT_ID   = 67039
ELEMENT_SET_NO = 999
REV_AT_EPOCH   = 137
BSTAR          = -.58337017E-2
MEAN_MOTION_DOT = -.1422831E-1
MEAN_MOTION_DDOT = 0

CCSDS_OMM_VERS = 2.0
CREATION_DATE  = 
ORIGINATOR     = 

OBJECT_NAME    = STARLINK-35786
OBJECT_ID      = 2025-294L
CENTER_NAME    = EARTH
REF_FRAME      = TEME
TIME_SYSTEM    = UTC
MEAN_ELEMENT_THEORY = SGP/SGP4

EPOCH          = 2025-12-20T14:00:03.000384
MEAN_MOTION    = 15.87861820
ECCENTRICITY   = .00017696
INCLINATION    = 42.9999
RA_OF_ASC_NODE = 134.1907
ARG_OF_PERICENTER = 267.9203
MEAN_ANOMALY   = 84.1104

EPHEMERIS_TYPE = 0
CLASSIFICATION_TYPE = U
NORAD_CAT_ID   = 67040
ELEMENT_SET_NO = 999
REV_AT_EPOCH   = 137
BSTAR          = -.57873284E-2
MEAN_MOTION_DOT = -.1410648E-1
MEAN_MOTION_DDOT = 0

CCSDS_OMM_VERS = 2.0
CREATION_DATE  = 
ORIGINATOR     = 

OBJECT_NAME    = STARLINK-35765
OBJECT_ID      = 2025-294M
CENTER_NAME    = EARTH
REF_FRAME      = TEME
TIME_SYSTEM    = UTC
MEAN_ELEMENT_THEORY = SGP/SGP4

EPOCH          = 2025-12-20T14:00:03.000384
MEAN_MOTION    = 15.87937039
ECCENTRICITY   = .00016674
INCLINATION    = 42.9998
RA_OF_ASC_NODE = 134.1806
ARG_OF_PERICENTER = 269.4622
MEAN_ANOMALY   = 86.5094

EPHEMERIS_TYPE = 0
CLASSIFICATION_TYPE = U
NORAD_CAT_ID   = 67041
ELEMENT_SET_NO = 999
REV_AT_EPOCH   = 137
BSTAR          = -.58299385E-2
MEAN_MOTION_DOT = -.1424268E-1
MEAN_MOTION_DDOT = 0

CCSDS_OMM_VERS = 2.0
CREATION_DATE  = 
ORIGINATOR     = 

OBJECT_NAME    = STARLINK-35773
OBJECT_ID      = 2025-294N
CENTER_NAME    = EARTH
REF_FRAME      = TEME
TIME_SYSTEM    = UTC
MEAN_ELEMENT_THEORY = SGP/SGP4

EPOCH          = 2025-12-20T14:00:03.000384
MEAN_MOTION    = 15.87970664
ECCENTRICITY   = .00017115
INCLINATION    = 42.9999
RA_OF_ASC_NODE = 134.1753
ARG_OF_PERICENTER = 269.0948
MEAN_ANOMALY   = 89.0173

EPHEMERIS_TYPE = 0
CLASSIFICATION_TYPE = U
NORAD_CAT_ID   = 67042
ELEMENT_SET_NO = 999
REV_AT_EPOCH   = 157
BSTAR          = -.5860955E-2
MEAN_MOTION_DOT = -.1432985E-1
MEAN_MOTION_DDOT = 0

CCSDS_OMM_VERS = 2.0
CREATION_DATE  = 
ORIGINATOR     = 

OBJECT_NAME    = STARLINK-35901
OBJECT_ID      = 2025-294P
CENTER_NAME    = EARTH
REF_FRAME      = TEME
TIME_SYSTEM    = UTC
MEAN_ELEMENT_THEORY = SGP/SGP4

EPOCH          = 2025-12-20T14:00:03.000384
MEAN_MOTION    = 15.88006279
ECCENTRICITY   = .00017264
INCLINATION    = 43.0000
RA_OF_ASC_NODE = 134.1701
ARG_OF_PERICENTER = 268.3788
MEAN_ANOMALY   = 91.8462

EPHEMERIS_TYPE = 0
CLASSIFICATION_TYPE = U
NORAD_CAT_ID   = 67043
ELEMENT_SET_NO = 999
REV_AT_EPOCH   = 157
BSTAR          = -.58700308E-2
MEAN_MOTION_DOT = -.143716E-1
MEAN_MOTION_DDOT = 0

CCSDS_OMM_VERS = 2.0
CREATION_DATE  = 
ORIGINATOR     = 

OBJECT_NAME    = STARLINK-35884
OBJECT_ID      = 2025-294Q
CENTER_NAME    = EARTH
REF_FRAME      = TEME
TIME_SYSTEM    = UTC
MEAN_ELEMENT_THEORY = SGP/SGP4

EPOCH          = 2025-12-20T14:00:03.000384
MEAN_MOTION    = 15.88040625
ECCENTRICITY   = .00017185
INCLINATION    = 43.0002
RA_OF_ASC_NODE = 134.1648
ARG_OF_PERICENTER = 271.4372
MEAN_ANOMALY   = 90.8323

EPHEMERIS_TYPE = 0
CLASSIFICATION_TYPE = U
NORAD_CAT_ID   = 67044
ELEMENT_SET_NO = 999
REV_AT_EPOCH   = 157
BSTAR          = -.58913983E-2
MEAN_MOTION_DOT = -.1443851E-1
MEAN_MOTION_DDOT = 0

CCSDS_OMM_VERS = 2.0
CREATION_DATE  = 
ORIGINATOR     = 

OBJECT_NAME    = STARLINK-35891
OBJECT_ID      = 2025-294R
CENTER_NAME    = EARTH
REF_FRAME      = TEME
TIME_SYSTEM    = UTC
MEAN_ELEMENT_THEORY = SGP/SGP4

EPOCH          = 2025-12-20T14:00:03.000384
MEAN_MOTION    = 15.88072890
ECCENTRICITY   = .00016815
INCLINATION    = 43.0000
RA_OF_ASC_NODE = 134.1583
ARG_OF_PERICENTER = 272.6695
MEAN_ANOMALY   = 92.0881

EPHEMERIS_TYPE = 0
CLASSIFICATION_TYPE = U
NORAD_CAT_ID   = 67045
ELEMENT_SET_NO = 999
REV_AT_EPOCH   = 149
BSTAR          = -.59387333E-2
MEAN_MOTION_DOT = -.1455898E-1
MEAN_MOTION_DDOT = 0

CCSDS_OMM_VERS = 2.0
CREATION_DATE  = 
ORIGINATOR     = 

OBJECT_NAME    = STARLINK-35721
OBJECT_ID      = 2025-294S
CENTER_NAME    = EARTH
REF_FRAME      = TEME
TIME_SYSTEM    = UTC
MEAN_ELEMENT_THEORY = SGP/SGP4

EPOCH          = 2025-12-20T14:00:03.000384
MEAN_MOTION    = 15.88109767
ECCENTRICITY   = .0001663
INCLINATION    = 43.0002
RA_OF_ASC_NODE = 134.1528
ARG_OF_PERICENTER = 271.8252
MEAN_ANOMALY   = 95.1531

EPHEMERIS_TYPE = 0
CLASSIFICATION_TYPE = U
NORAD_CAT_ID   = 67046
ELEMENT_SET_NO = 999
REV_AT_EPOCH   = 157
BSTAR          = -.59615097E-2
MEAN_MOTION_DOT = -.1463058E-1
MEAN_MOTION_DDOT = 0

CCSDS_OMM_VERS = 2.0
CREATION_DATE  = 
ORIGINATOR     = 

OBJECT_NAME    = STARLINK-35779
OBJECT_ID      = 2025-294T
CENTER_NAME    = EARTH
REF_FRAME      = TEME
TIME_SYSTEM    = UTC
MEAN_ELEMENT_THEORY = SGP/SGP4

EPOCH          = 2025-12-20T14:00:03.000384
MEAN_MOTION    = 15.88141901
ECCENTRICITY   = .00016972
INCLINATION    = 43.0000
RA_OF_ASC_NODE = 134.1469
ARG_OF_PERICENTER = 271.3066
MEAN_ANOMALY   = 98.1564

EPHEMERIS_TYPE = 0
CLASSIFICATION_TYPE = U
NORAD_CAT_ID   = 67047
ELEMENT_SET_NO = 999
REV_AT_EPOCH   = 138
BSTAR          = -.60013511E-2
MEAN_MOTION_DOT = -.1473586E-1
MEAN_MOTION_DDOT = 0

