STARLINK-36125          
1 67036U 25294G   25354.58336806 -.01381635  00000+0 -56870-2 0  9998
2 67036  42.9998 134.2133 0001677 266.4697  76.5985 15.87736796  1564
STARLINK-35732          
1 67037U 25294H   25354.58336806 -.01399479  00000+0 -57539-2 0  9997
2 67037  42.9998 134.2015 0001666 268.2026  79.5479 15.87796859  1486
STARLINK-35775          
1 67038U 25294J   25354.58336806 -.01413172  00000+0 -58075-2 0  9991
2 67038  42.9999 134.1961 0001632 274.1873  75.6103 15.87835421  1486
STARLINK-35705          
1 67039U 25294K   25354.58336806 -.01422831  00000+0 -58337-2 0  9995
2 67039  42.9999 134.1856 0001653 269.6230  84.4220 15.87901410  1377
STARLINK-35786          
1 67040U 25294L   25354.58336806 -.01410648  00000+0 -57873-2 0  9994
2 67040  42.9999 134.1907 0001769 267.9203  84.1104 15.87861820  1373
STARLINK-35765          
1 67041U 25294M   25354.58336806 -.01424268  00000+0 -58299-2 0  9991
2 67041  42.9998 134.1806 0001667 269.4622  86.5094 15.87937039  1370
STARLINK-35773          
1 67042U 25294N   25354.58336806 -.01432985  00000+0 -58610-2 0  9994
2 67042  42.9999 134.1753 0001711 269.0948  89.0173 15.87970664  1579
STARLINK-35901          
1 67043U 25294P   25354.58336806 -.01437160  00000+0 -58700-2 0  9995
2 67043  43.0000 134.1701 0001726 268.3788  91.8462 15.88006279  1573
STARLINK-35884          
1 67044U 25294Q   25354.58336806 -.01443851  00000+0 -58914-2 0  9997
2 67044  43.0002 134.1648 0001718 271.4372  90.8323 15.88040625  1579
STARLINK-35891          
1 67045U 25294R   25354.58336806 -.01455898  00000+0 -59387-2 0  9997
2 67045  43.0000 134.1583 0001681 272.6695  92.0881 15.88072890  1499
STARLINK-35721          
1 67046U 25294S   25354.58336806 -.01463058  00000+0 -59615-2 0  9999
2 67046  43.0002 134.1528 0001663 271.8252  95.1531 15.88109767  1570
STARLINK-35779          
1 67047U 25294T   25354.58336806 -.01473586  00000+0 -60014-2 0  9992
2 67047  43.0000 134.1469 0001697 271.3066  98.1564 15.88141901  1382
